{
  "type": "FeatureCollection",
  "features": [
    {
      "type": "Feature",
      "properties": {
        "norad_id": 35239,
        "name": "FENGYUN 1C DEB",
        "group": "fengyun-1c-debris",
        "lat": 80.67779289743396,
        "lon": 43.34078580340786,
        "alt_km": 904.8797487723687,
        "timestamp": "2025-12-04T10:51:50.393289+00:00",
        "meta_object_name": "FENGYUN 1C DEB",
        "meta_object_id": "1999-025DQX",
        "meta_epoch": "2025-12-02T16:20:55.653216",
        "meta_mean_motion": 13.69187111,
        "meta_eccentricity": 0.02297744,
        "meta_inclination": 99.2648,
        "meta_ra_of_asc_node": 137.7373,
        "meta_arg_of_pericenter": 36.5764,
        "meta_mean_anomaly": 325.0829,
        "meta_ephemeris_type": 0,
        "meta_classification_type": "U",
        "meta_norad_cat_id": 35239,
        "meta_element_set_no": 999,
        "meta_rev_at_epoch": 57993,
        "meta_bstar": 0.00086467038,
        "meta_mean_motion_dot": 8.6e-06,
        "meta_mean_motion_ddot": 0,
        "tle_line1": "1 35239U 99025DQX 25336.68119969  .00000860  00000+0  86467-3 0  9992",
        "tle_line2": "2 35239  99.2648 137.7373 0229774  36.5764 325.0829 13.69187111579935"
      },
      "geometry": {
        "type": "Point",
        "coordinates": [
          43.34078580340786,
          80.67779289743396
        ]
      }
    },
    {
      "type": "Feature",
      "properties": {
        "norad_id": 35240,
        "name": "FENGYUN 1C DEB",
        "group": "fengyun-1c-debris",
        "lat": 69.2256895548203,
        "lon": 146.10836685767794,
        "alt_km": 794.9805496502513,
        "timestamp": "2025-12-04T10:51:50.393299+00:00",
        "meta_object_name": "FENGYUN 1C DEB",
        "meta_object_id": "1999-025DQY",
        "meta_epoch": "2025-12-04T03:36:15.470784",
        "meta_mean_motion": 14.2318904,
        "meta_eccentricity": 0.0045704,
        "meta_inclination": 99.349,
        "meta_ra_of_asc_node": 300.0487,
        "meta_arg_of_pericenter": 176.7445,
        "meta_mean_anomaly": 183.4037,
        "meta_ephemeris_type": 0,
        "meta_classification_type": "U",
        "meta_norad_cat_id": 35240,
        "meta_element_set_no": 999,
        "meta_rev_at_epoch": 93042,
        "meta_bstar": 0.0034954,
        "meta_mean_motion_dot": 7.946e-05,
        "meta_mean_motion_ddot": 0,
        "tle_line1": "1 35240U 99025DQY 25338.15017906  .00007946  00000+0  34954-2 0  9991",
        "tle_line2": "2 35240  99.3490 300.0487 0045704 176.7445 183.4037 14.23189040930422"
      },
      "geometry": {
        "type": "Point",
        "coordinates": [
          146.10836685767794,
          69.2256895548203
        ]
      }
    },
    {
      "type": "Feature",
      "properties": {
        "norad_id": 35241,
        "name": "FENGYUN 1C DEB",
        "group": "fengyun-1c-debris",
        "lat": -30.306413289405228,
        "lon": -86.95828648599046,
        "alt_km": 904.0613396745193,
        "timestamp": "2025-12-04T10:51:50.393310+00:00",
        "meta_object_name": "FENGYUN 1C DEB",
        "meta_object_id": "1999-025DQZ",
        "meta_epoch": "2025-11-30T05:56:44.334240",
        "meta_mean_motion": 14.01843685,
        "meta_eccentricity": 0.01367336,
        "meta_inclination": 98.628,
        "meta_ra_of_asc_node": 263.9706,
        "meta_arg_of_pericenter": 244.1586,
        "meta_mean_anomaly": 114.5426,
        "meta_ephemeris_type": 0,
        "meta_classification_type": "U",
        "meta_norad_cat_id": 35241,
        "meta_element_set_no": 999,
        "meta_rev_at_epoch": 87431,
        "meta_bstar": 0.001716208,
        "meta_mean_motion_dot": 2.791e-05,
        "meta_mean_motion_ddot": 0,
        "tle_line1": "1 35241U 99025DQZ 25334.24773535  .00002791  00000+0  17162-2 0  9990",
        "tle_line2": "2 35241  98.6280 263.9706 0136733 244.1586 114.5426 14.01843685874312"
      },
      "geometry": {
        "type": "Point",
        "coordinates": [
          -86.95828648599046,
          -30.306413289405228
        ]
      }
    },
    {
      "type": "Feature",
      "properties": {
        "norad_id": 35242,
        "name": "FENGYUN 1C DEB",
        "group": "fengyun-1c-debris",
        "lat": 79.79729002088531,
        "lon": -71.27373123519195,
        "alt_km": 1153.1673430925093,
        "timestamp": "2025-12-04T10:51:50.393320+00:00",
        "meta_object_name": "FENGYUN 1C DEB",
        "meta_object_id": "1999-025DRA",
        "meta_epoch": "2025-12-03T22:50:39.775200",
        "meta_mean_motion": 13.52308848,
        "meta_eccentricity": 0.0301723,
        "meta_inclination": 99.9703,
        "meta_ra_of_asc_node": 30.445,
        "meta_arg_of_pericenter": 210.4797,
        "meta_mean_anomaly": 327.8757,
        "meta_ephemeris_type": 0,
        "meta_classification_type": "U",
        "meta_norad_cat_id": 35242,
        "meta_element_set_no": 999,
        "meta_rev_at_epoch": 58008,
        "meta_bstar": 0.0031668,
        "meta_mean_motion_dot": 2.737e-05,
        "meta_mean_motion_ddot": 0,
        "tle_line1": "1 35242U 99025DRA 25337.95184925  .00002737  00000+0  31668-2 0  9998",
        "tle_line2": "2 35242  99.9703  30.4450 0301723 210.4797 327.8757 13.52308848580089"
      },
      "geometry": {
        "type": "Point",
        "coordinates": [
          -71.27373123519195,
          79.79729002088531
        ]
      }
    },
    {
      "type": "Feature",
      "properties": {
        "norad_id": 35243,
        "name": "FENGYUN 1C DEB",
        "group": "fengyun-1c-debris",
        "lat": 73.70501269621941,
        "lon": -91.30106241380184,
        "alt_km": 648.4145799945127,
        "timestamp": "2025-12-04T10:51:50.393330+00:00",
        "meta_object_name": "FENGYUN 1C DEB",
        "meta_object_id": "1999-025DRB",
        "meta_epoch": "2025-12-02T22:51:09.337824",
        "meta_mean_motion": 14.86352035,
        "meta_eccentricity": 0.00664826,
        "meta_inclination": 98.8819,
        "meta_ra_of_asc_node": 54.6839,
        "meta_arg_of_pericenter": 288.1056,
        "meta_mean_anomaly": 71.2923,
        "meta_ephemeris_type": 0,
        "meta_classification_type": "U",
        "meta_norad_cat_id": 35243,
        "meta_element_set_no": 999,
        "meta_rev_at_epoch": 90855,
        "meta_bstar": 0.0031540832,
        "meta_mean_motion_dot": 0.00028979,
        "meta_mean_motion_ddot": 0,
        "tle_line1": "1 35243U 99025DRB 25336.95219141  .00028979  00000+0  31541-2 0  9993",
        "tle_line2": "2 35243  98.8819  54.6839 0066482 288.1056  71.2923 14.86352035908551"
      },
      "geometry": {
        "type": "Point",
        "coordinates": [
          -91.30106241380184,
          73.70501269621941
        ]
      }
    },
    {
      "type": "Feature",
      "properties": {
        "norad_id": 35244,
        "name": "FENGYUN 1C DEB",
        "group": "fengyun-1c-debris",
        "lat": -46.11499150643921,
        "lon": 28.174637909795596,
        "alt_km": 912.7972356854689,
        "timestamp": "2025-12-04T10:51:50.393341+00:00",
        "meta_object_name": "FENGYUN 1C DEB",
        "meta_object_id": "1999-025DRC",
        "meta_epoch": "2025-11-28T08:16:08.942880",
        "meta_mean_motion": 14.06587335,
        "meta_eccentricity": 0.00714695,
        "meta_inclination": 98.8424,
        "meta_ra_of_asc_node": 12.8921,
        "meta_arg_of_pericenter": 197.497,
        "meta_mean_anomaly": 162.3735,
        "meta_ephemeris_type": 0,
        "meta_classification_type": "U",
        "meta_norad_cat_id": 35244,
        "meta_element_set_no": 999,
        "meta_rev_at_epoch": 65619,
        "meta_bstar": 0.00065997772,
        "meta_mean_motion_dot": 1.076e-05,
        "meta_mean_motion_ddot": 0,
        "tle_line1": "1 35244U 99025DRC 25332.34454795  .00001076  00000+0  65998-3 0  9992",
        "tle_line2": "2 35244  98.8424  12.8921 0071469 197.4970 162.3735 14.06587335656198"
      },
      "geometry": {
        "type": "Point",
        "coordinates": [
          28.174637909795596,
          -46.11499150643921
        ]
      }
    },
    {
      "type": "Feature",
      "properties": {
        "norad_id": 35245,
        "name": "FENGYUN 1C DEB",
        "group": "fengyun-1c-debris",
        "lat": 17.621330969228687,
        "lon": 60.93580503019843,
        "alt_km": 844.811187068005,
        "timestamp": "2025-12-04T10:51:50.393352+00:00",
        "meta_object_name": "FENGYUN 1C DEB",
        "meta_object_id": "1999-025DRD",
        "meta_epoch": "2025-12-04T01:10:25.154400",
        "meta_mean_motion": 14.13001391,
        "meta_eccentricity": 0.0058289,
        "meta_inclination": 99.085,
        "meta_ra_of_asc_node": 63.4394,
        "meta_arg_of_pericenter": 295.0869,
        "meta_mean_anomaly": 189.4728,
        "meta_ephemeris_type": 0,
        "meta_classification_type": "U",
        "meta_norad_cat_id": 35245,
        "meta_element_set_no": 999,
        "meta_rev_at_epoch": 87654,
        "meta_bstar": 0.0033839,
        "meta_mean_motion_dot": 6.371e-05,
        "meta_mean_motion_ddot": 0,
        "tle_line1": "1 35245U 99025DRD 25338.04890225  .00006371  00000+0  33839-2 0  9999",
        "tle_line2": "2 35245  99.0850  63.4394 0058289 295.0869 189.4728 14.13001391876544"
      },
      "geometry": {
        "type": "Point",
        "coordinates": [
          60.93580503019843,
          17.621330969228687
        ]
      }
    }
  ]
}